[{"OBJECT_NAME":"ONEWEB-0291","OBJECT_ID":"2021-075G","EPOCH":"2026-03-09T21:57:11.284416","MEAN_MOTION":13.17649041,"ECCENTRICITY":0.00020864,"INCLINATION":87.9159,"RA_OF_ASC_NODE":25.5681,"ARG_OF_PERICENTER":71.6574,"MEAN_ANOMALY":288.4785,"EPHEMERIS_TYPE":0,"CLASSIFICATION_TYPE":"U","NORAD_CAT_ID":49081,"ELEMENT_SET_NO":999,"REV_AT_EPOCH":22053,"BSTAR":-3.5068499e-5,"MEAN_MOTION_DOT":-1.0e-8,"MEAN_MOTION_DDOT":0},{"OBJECT_NAME":"SL-14 DEB","OBJECT_ID":"1991-056U","EPOCH":"2026-03-09T21:38:35.637504","MEAN_MOTION":13.16787304,"ECCENTRICITY":0.00154221,"INCLINATION":82.6187,"RA_OF_ASC_NODE":227.6273,"ARG_OF_PERICENTER":80.2108,"MEAN_ANOMALY":280.0755,"EPHEMERIS_TYPE":0,"CLASSIFICATION_TYPE":"U","NORAD_CAT_ID":45282,"ELEMENT_SET_NO":999,"REV_AT_EPOCH":29131,"BSTAR":0.0016322348,"MEAN_MOTION_DOT":6.39e-6,"MEAN_MOTION_DDOT":0}]
